[{"OBJECT_NAME":"STARLINK-5789","OBJECT_ID":"2023-042T","EPOCH":"2026-03-09T08:55:55.186464","MEAN_MOTION":15.02533544,"ECCENTRICITY":0.00011101,"INCLINATION":43.0042,"RA_OF_ASC_NODE":57.7451,"ARG_OF_PERICENTER":261.1689,"MEAN_ANOMALY":98.9027,"EPHEMERIS_TYPE":0,"CLASSIFICATION_TYPE":"U","NORAD_CAT_ID":56003,"ELEMENT_SET_NO":999,"REV_AT_EPOCH":16286,"BSTAR":-1.1024166e-5,"MEAN_MOTION_DOT":-3.52e-6,"MEAN_MOTION_DDOT":0},{"OBJECT_NAME":"CZ-4B R\/B","OBJECT_ID":"2010-051C","EPOCH":"2026-03-09T16:48:37.977120","MEAN_MOTION":15.17426017,"ECCENTRICITY":0.00758037,"INCLINATION":97.7974,"RA_OF_ASC_NODE":110.8647,"ARG_OF_PERICENTER":95.044,"MEAN_ANOMALY":265.9451,"EPHEMERIS_TYPE":0,"CLASSIFICATION_TYPE":"U","NORAD_CAT_ID":37181,"ELEMENT_SET_NO":999,"REV_AT_EPOCH":84355,"BSTAR":0.00029718512,"MEAN_MOTION_DOT":6.328e-5,"MEAN_MOTION_DDOT":0}]
